1 44735U 19074Y   22365.09372703  .00007579  00000-0  52705-3 0  9993
2 44735  53.0510  34.7046 0002302  39.4313 320.6843 15.06407569173104
1 44735U 19074Y   22365.49180731  .00009804  00000-0  67586-3 0  9991
2 44735  53.0510  32.9181 0002564  37.8002 322.3167 15.06417639172994
1 44735U 19074Y   23001.15526946  .00003582  00000-0  25914-3 0  9990
2 44735  53.0518  29.9387 0002402  42.5657 317.5518 15.06416555173269
1 44735U 19074Y   23001.48700640 -.00006783  00000-0 -43700-3 0  9992
2 44735  53.0526  28.4499 0002264  38.3572 321.7578 15.06388735173318
1 44735U 19074Y   23001.55335476 -.00006412  00000-0 -41208-3 0  9991
2 44735  53.0524  28.1518 0002249  37.2150 322.8994 15.06385959173159
1 44735U 19074Y   23002.34952258  .00014257  00000-0  97399-3 0  9998
2 44735  53.0523  24.5776 0002250  37.3700 322.7445 15.06402955173446
1 44735U 19074Y   23002.54856314  .00014661  00000-0  10010-2 0  9999
2 44735  53.0522  23.6841 0002281  37.5890 322.5258 15.06403576173309
1 44735U 19074Y   23002.74760343  .00010743  00000-0  73892-3 0  9992
2 44735  53.0521  22.7907 0002230  37.4700 322.6444 15.06404654173333
1 44735U 19074Y   23003.07933798  .00003745  00000-0  27022-3 0  9993
2 44735  53.0522  21.3009 0002270  39.9275 320.1880 15.06400320173557
1 44735U 19074Y   23003.47741747  .00004616  00000-0  32853-3 0  9994
2 44735  53.0526  19.5150 0002097  36.1242 323.9888 15.06402874173440
1 44735U 19074Y   23003.74280756  .00000577  00000-0  57677-4 0  9996
2 44735  53.0517  18.3232 0002148  37.5390 322.5749 15.06395621173659
1 44735U 19074Y   23004.40627147  .00006339  00000-0  44393-3 0  9991
2 44735  53.0513  15.3445 0002205  38.6810 321.4336 15.06411453173754
1 44735U 19074Y   23004.80435190  .00005579  00000-0  39301-3 0  9998
2 44735  53.0517  13.5560 0002304  39.9310 320.1848 15.06410695173644
1 44735U 19074Y   23005.26877261  .00009377  00000-0  64720-3 0  9991
2 44735  53.0513  11.4713 0002303  39.7735 320.3423 15.06422910173717
1 44735U 19074Y   23005.73319770  .00003806  00000-0  27418-3 0  9993
2 44735  53.0499   9.3856 0002199  40.6200 319.4952 15.06415101173782
1 44735U 19074Y   23006.26397705 -.00004718  00000-0 -29811-3 0  9990
2 44735  53.0520   7.0029 0002021  28.2521 331.8577 15.06391440174035
1 44735U 19074Y   23006.39667126 -.00003919  00000-0 -24437-3 0  9992
2 44735  53.0520   6.4068 0002080  31.6428 328.4686 15.06392099173886
1 44735U 19074Y   23007.25917873  .00003311  00000-0  24106-3 0  9992
2 44735  53.0522   2.5358 0002285  38.6172 321.4980 15.06406738174019
1 44735U 19074Y   23007.39187426  .00005295  00000-0  37409-3 0  9993
2 44735  53.0528   1.9401 0002278  37.1402 322.9744 15.06403789174038
1 44735U 19074Y   23007.39187426  .00005295  00000-0  37409-3 0  9993
2 44735  53.0528   1.9401 0002278  37.1402 322.9744 15.06403789174207
1 44735U 19074Y   23007.98900361  .00003182  00000-0  23248-3 0  9998
2 44735  53.0543 359.2582 0002527  46.5835 313.5364 15.06394802174292
1 44735U 19074Y   23008.38708483  .00003053  00000-0  22381-3 0  9998
2 44735  53.0521 357.4726 0002494  42.4333 317.6849 15.06396696174183
1 44735U 19074Y   23008.91785754  .00004777  00000-0  33933-3 0  9992
2 44735  53.0522 355.0896 0002522  41.1235 318.9944 15.06404538174269
1 44735U 19074Y   23009.38228524  .00003332  00000-0  24248-3 0  9996
2 44735  53.0532 353.0045 0002297  44.4494 315.6679 15.06402441174334
1 44735U 19074Y   23009.64767575  .00000518  00000-0  53699-4 0  9995
2 44735  53.0521 351.8129 0002283  40.1289 319.9869 15.06394424174543
1 44735U 19074Y   23009.91306062  .00002280  00000-0  17189-3 0  9996
2 44735  53.0505 350.6205 0002169  33.9563 326.1565 15.06400378174410
1 44735U 19074Y   23010.37749205  .00000104  00000-0  25875-4 0  9993
2 44735  53.0526 348.5370 0002271  39.0440 321.0712 15.06395144174486
1 44735U 19074Y   23010.64288268 -.00000362  00000-0 -53858-5 0  9991
2 44735  53.0518 347.3441 0001683  31.8533 328.2558 15.06386896174696
1 44735U 19074Y   23010.90826915 -.00000193  00000-0  59898-5 0  9998
2 44735  53.0514 346.1515 0002120  46.4988 313.6177 15.06394429174566
1 44735U 19074Y   23011.10730480  .00001567  00000-0  12406-3 0  9999
2 44735  53.0527 345.2591 0001938  47.3211 312.7941 15.06403122174761
1 44735U 19074Y   23011.23999783  .00003361  00000-0  24436-3 0  9996
2 44735  53.0526 344.6639 0002157  41.5439 318.5714 15.06406684174610
1 44735U 19074Y   23011.90345922  .00005422  00000-0  38245-3 0  9993
2 44735  53.0520 341.6846 0002038  40.5360 319.5781 15.06416147174712
1 44735U 19074Y   23012.16884086  .00008181  00000-0  56712-3 0  9995
2 44735  53.0523 340.4935 0001843  45.2498 314.8641 15.06425148174925
1 44735U 19074Y   23012.63327558  .00001444  00000-0  11582-3 0  9994
2 44735  53.0527 338.4101 0002132  50.3918 309.7259 15.06404312174824
1 44735U 19074Y   23012.63327558  .00001444  00000-0  11582-3 0  9994
2 44735  53.0527 338.4101 0002132  50.3918 309.7259 15.06404312174992
1 44735U 19074Y   23012.96502634 -.00010521  00000-0 -68907-3 0  9991
2 44735  53.0523 336.9196 0001874  54.2431 305.8732 15.06365649175049
1 44735U 19074Y   23013.16406613 -.00010439  00000-0 -68353-3 0  9997
2 44735  53.0530 336.0267 0001659  52.4088 307.7051 15.06367148174901
1 44735U 19074Y   23013.16406613 -.00010439  00000-0 -68353-3 0  9997
2 44735  53.0530 336.0267 0001659  52.4088 307.7051 15.06367148175070
1 44735U 19074Y   23014.15928008  .00031928  00000-0  21519-2 0  9990
2 44735  53.0524 331.5593 0001665  63.5349 296.5811 15.06413119175221
1 44735U 19074Y   23014.29197043  .00043180  00000-0  28973-2 0  9996
2 44735  53.0524 330.9636 0001675  64.9259 295.1904 15.06434503175248
1 44735U 19074Y   23014.88909333  .00025014  00000-0  16914-2 0  9992
2 44735  53.0523 328.2827 0001536  78.9981 281.1181 15.06417599175330
1 44735U 19074Y   23015.22082398  .00038450  00000-0  25839-2 0  9998
2 44735  53.0523 326.7934 0001649  82.6549 277.4628 15.06432375175219
1 44735U 19074Y   23015.81794747  .00027921  00000-0  18851-2 0  9998
2 44735  53.0539 324.1120 0002534  82.8748 277.2529 15.06414625175308
1 44735U 19074Y   23015.81794747  .00027921  00000-0  18851-2 0  9998
2 44735  53.0539 324.1120 0002534  82.8748 277.2529 15.06414625175476
1 44735U 19074Y   23016.54775239  .00019069  00000-0  12948-2 0  9999
2 44735  53.0524 320.8358 0000750  38.0402 322.0640 15.06423435175410
1 44735U 19074Y   23016.54775239  .00019069  00000-0  12948-2 0  9999
2 44735  53.0524 320.8358 0000750  38.0402 322.0640 15.06423435175588
1 44735U 19074Y   23017.21124476  .00017305  00000-0  11791-2 0  9991
2 44735  53.0518 317.8582 0001381  66.7169 293.3965 15.06358141175687
1 44735U 19074Y   23017.54297886  .00039018  00000-0  26236-2 0  9998
2 44735  53.0529 316.3673 0001349  72.1926 287.9210 15.06403590175568
1 44735U 19074Y   23017.80836196  .00044518  00000-0  29862-2 0  9999
2 44735  53.0519 315.1762 0001282  72.4068 287.7061 15.06431877175605
1 44735U 19074Y   23017.80836196  .00044518  00000-0  29862-2 0  9999
2 44735  53.0519 315.1762 0001282  72.4068 287.7061 15.06431877175773
1 44735U 19074Y   23018.53816079  .00015008  00000-0  10233-2 0  9992
2 44735  53.0528 311.9003 0000961  89.6055 270.5044 15.06436604175880
1 44735U 19074Y   23019.06894073  .00032255  00000-0  21737-2 0  9995
2 44735  53.0522 309.5173 0001295  97.8273 262.2863 15.06412492175964
1 44735U 19074Y   23019.20163466  .00038750  00000-0  26051-2 0  9996
2 44735  53.0522 308.9216 0001319  97.6299 262.4840 15.06413699175819
1 44735U 19074Y   23020.06415645  .00030696  00000-0  20706-2 0  9993
2 44735  53.0530 305.0497 0001759 112.4319 247.6856 15.06400774176110
1 44735U 19074Y   23020.26319684  .00023524  00000-0  15928-2 0  9993
2 44735  53.0527 304.1549 0001515 113.2792 246.8356 15.06401906175975
1 44735U 19074Y   23020.26319684  .00023524  00000-0  15928-2 0  9993
2 44735  53.0527 304.1549 0001515 113.2792 246.8356 15.06401906176145
1 44735U 19074Y   23021.05936483  .00031406  00000-0  21173-2 0  9990
2 44735  53.0527 300.5809 0001425 108.4310 251.6834 15.06410854176266
1 44735U 19074Y   23021.45744630  .00021222  00000-0  14388-2 0  9990
2 44735  53.0526 298.7936 0001893 105.6140 254.5058 15.06413612176325
1 44735U 19074Y   23021.85552149  .00013713  00000-0  93740-3 0  9992
2 44735  53.0522 297.0103 0001203 144.2665 215.8405 15.06411001176387
1 44735U 19074Y   23022.45264106  .00010707  00000-0  73625-3 0  9992
2 44735  53.0515 294.3292 0001301  89.8783 270.2355 15.06418078176472
1 44735U 19074Y   23022.78437862 -.00007751  00000-0 -50230-3 0  9993
2 44735  53.0522 292.8364 0000885  82.3366 277.7724 15.06381057176528
1 44735U 19074Y   23022.91707212 -.00000910  00000-0 -42246-4 0  9996
2 44735  53.0522 292.2412 0000952 108.4537 251.6556 15.06389629176540
1 44735U 19074Y   23024.11131733  .00018587  00000-0  12628-2 0  9995
2 44735  53.0513 286.8785 0001262  94.6765 265.4368 15.06418505176726
1 44735U 19074Y   23025.10651746  .00012688  00000-0  86874-3 0  9997
2 44735  53.0508 282.4107 0001275  94.3382 265.7753 15.06417702176871
1 44735U 19074Y   23025.43825331  .00004473  00000-0  31900-3 0  9999
2 44735  53.0513 280.9205 0001506  94.0918 266.0243 15.06396755176757
1 44735U 19074Y   23025.43825331  .00004473  00000-0  31900-3 0  9999
2 44735  53.0513 280.9205 0001506  94.0918 266.0243 15.06396755176926
1 44735U 19074Y   23025.83633784  .00015781  00000-0  10759-2 0  9994
2 44735  53.0513 279.1331 0001556  96.7793 263.3372 15.06401402176818
1 44735U 19074Y   23026.10172668  .00025414  00000-0  17187-2 0  9990
2 44735  53.0507 277.9438 0001298  75.0952 285.0181 15.06403948176855
1 44735U 19074Y   23026.83153995  .00012037  00000-0  82537-3 0  9991
2 44735  53.0509 274.6658 0001390  84.0151 276.0996 15.06410039177134
1 44735U 19074Y   23027.09692441  .00008533  00000-0  59082-3 0  9999
2 44735  53.0503 273.4747 0001414  83.9433 276.1717 15.06412535177003
1 44735U 19074Y   23027.89309003  .00000931  00000-0  81357-4 0  9991
2 44735  53.0513 269.8984 0001258  92.3208 267.7925 15.06397849177126
1 44735U 19074Y   23028.02578384  .00002847  00000-0  20993-3 0  9993
2 44735  53.0507 269.3039 0001126  82.4367 277.6750 15.06400350177145
1 44735U 19074Y   23028.02578384  .00002847  00000-0  20993-3 0  9993
2 44735  53.0507 269.3039 0001126  82.4367 277.6750 15.06400350177314
1 44735U 19074Y   23028.88829359  .00002312  00000-0  17406-3 0  9990
2 44735  53.0502 265.4316 0001090  81.4129 278.6983 15.06399764177279
1 44735U 19074Y   23029.08733277  .00003847  00000-0  27698-3 0  9994
2 44735  53.0503 264.5385 0001077  85.8879 274.2233 15.06403520177479
1 44735U 19074Y   23029.88349917  .00000205  00000-0  32663-4 0  9990
2 44735  53.0504 260.9642 0001099  87.2606 272.8508 15.06393930177421
1 44735U 19074Y   23030.01619265  .00000507  00000-0  52952-4 0  9991
2 44735  53.0505 260.3686 0001118  87.5268 272.5849 15.06395121177613
1 44735U 19074Y   23030.61331555  .00000377  00000-0  44190-4 0  9990
2 44735  53.0507 257.6874 0001096  91.5203 268.5911 15.06396695177535
1 44735U 19074Y   23030.87870119  .00001000  00000-0  85982-4 0  9990
2 44735  53.0505 256.4961 0001094  93.5829 266.5285 15.06399745177576
1 44735U 19074Y   23031.40944764  .00004230  00000-0  30244-3 0  9996
2 44735  53.0540 254.1137 0000813 102.3332 257.7748 15.06428806177826
1 44735U 19074Y   23031.60844893  .00011210  00000-0  76880-3 0  9992
2 44735  53.0516 253.2214 0001263  86.0593 274.0540 15.06470354177683
1 44735U 19074Y   23031.67479885  .00009856  00000-0  67852-3 0  9996
2 44735  53.0547 252.9176 0001092  99.4956 260.6157 15.06462582177860
1 44735U 19074Y   23031.87389324  .00000868  00000-0  77195-4 0  9992
2 44735  53.0511 252.0302 0001668  87.2374 272.8806 15.06399205177723
